[
  {
    "OBJECT_NAME": "NOAA 15",
    "OBJECT_ID": "1998-030A",
    "EPOCH": "2025-05-04T03:20:51.255168",
    "MEAN_MOTION": 14.26957848,
    "ECCENTRICITY": 0.0011507,
    "INCLINATION": 98.538,
    "RA_OF_ASC_NODE": 150.1434,
    "ARG_OF_PERICENTER": 105.1545,
    "MEAN_ANOMALY": 255.091,
    "EPHEMERIS_TYPE": 0,
    "CLASSIFICATION_TYPE": "U",
    "NORAD_CAT_ID": 25338,
    "ELEMENT_SET_NO": 999,
    "REV_AT_EPOCH": 40320,
    "BSTAR": 0.00015776,
    "MEAN_MOTION_DOT": 3.41e-06,
    "MEAN_MOTION_DDOT": 0
  },
  {
    "OBJECT_NAME": "DMSP 5D-3 F16 (USA 172)",
    "OBJECT_ID": "2003-048A",
    "EPOCH": "2025-05-04T05:16:01.058016",
    "MEAN_MOTION": 14.14346783,
    "ECCENTRICITY": 0.0006483,
    "INCLINATION": 99.0148,
    "RA_OF_ASC_NODE": 139.7237,
    "ARG_OF_PERICENTER": 217.3916,
    "MEAN_ANOMALY": 215.5932,
    "EPHEMERIS_TYPE": 0,
    "CLASSIFICATION_TYPE": "U",
    "NORAD_CAT_ID": 28054,
    "ELEMENT_SET_NO": 999,
    "REV_AT_EPOCH": 11165,
    "BSTAR": 0.00012735,
    "MEAN_MOTION_DOT": 1.98e-06,
    "MEAN_MOTION_DDOT": 0
  },
  {
    "OBJECT_NAME": "NOAA 18",
    "OBJECT_ID": "2005-018A",
    "EPOCH": "2025-05-04T04:04:42.650112",
    "MEAN_MOTION": 14.13590821,
    "ECCENTRICITY": 0.0013441,
    "INCLINATION": 98.8422,
    "RA_OF_ASC_NODE": 204.0552,
    "ARG_OF_PERICENTER": 229.3262,
    "MEAN_ANOMALY": 130.6743,
    "EPHEMERIS_TYPE": 0,
    "CLASSIFICATION_TYPE": "U",
    "NORAD_CAT_ID": 28654,
    "ELEMENT_SET_NO": 999,
    "REV_AT_EPOCH": 2860,
    "BSTAR": 0.00019135,
    "MEAN_MOTION_DOT": 3.17e-06,
    "MEAN_MOTION_DDOT": 0
  },
  {
    "OBJECT_NAME": "METEOSAT-9 (MSG-2)",
    "OBJECT_ID": "2005-049B",
    "EPOCH": "2025-05-03T22:55:50.124864",
    "MEAN_MOTION": 1.00277751,
    "ECCENTRICITY": 8.81e-05,
    "INCLINATION": 8.4299,
    "RA_OF_ASC_NODE": 58.0499,
    "ARG_OF_PERICENTER": 356.3353,
    "MEAN_ANOMALY": 197.4337,
    "EPHEMERIS_TYPE": 0,
    "CLASSIFICATION_TYPE": "U",
    "NORAD_CAT_ID": 28912,
    "ELEMENT_SET_NO": 999,
    "REV_AT_EPOCH": 290,
    "BSTAR": 0,
    "MEAN_MOTION_DOT": 1.16e-06,
    "MEAN_MOTION_DDOT": 0
  },
  {
    "OBJECT_NAME": "EWS-G1 (GOES 13)",
    "OBJECT_ID": "2006-018A",
    "EPOCH": "2025-05-03T18:08:49.339104",
    "MEAN_MOTION": 0.98816304,
    "ECCENTRICITY": 0.0064181,
    "INCLINATION": 3.4683,
    "RA_OF_ASC_NODE": 81.3999,
    "ARG_OF_PERICENTER": 264.9229,
    "MEAN_ANOMALY": 222.0961,
    "EPHEMERIS_TYPE": 0,
    "CLASSIFICATION_TYPE": "U",
    "NORAD_CAT_ID": 29155,
    "ELEMENT_SET_NO": 999,
    "REV_AT_EPOCH": 3920,
    "BSTAR": 0,
    "MEAN_MOTION_DOT": 4.4e-07,
    "MEAN_MOTION_DDOT": 0
  },
  {
    "OBJECT_NAME": "DMSP 5D-3 F17 (USA 191)",
    "OBJECT_ID": "2006-050A",
    "EPOCH": "2025-05-04T03:36:45.838656",
    "MEAN_MOTION": 14.1482454,
    "ECCENTRICITY": 0.0010853,
    "INCLINATION": 98.74,
    "RA_OF_ASC_NODE": 134.1177,
    "ARG_OF_PERICENTER": 138.7051,
    "MEAN_ANOMALY": 221.4945,
    "EPHEMERIS_TYPE": 0,
    "CLASSIFICATION_TYPE": "U",
    "NORAD_CAT_ID": 29522,
    "ELEMENT_SET_NO": 999,
    "REV_AT_EPOCH": 95457,
    "BSTAR": 0.00014842,
    "MEAN_MOTION_DOT": 2.43e-06,
    "MEAN_MOTION_DDOT": 0
  },
  {
    "OBJECT_NAME": "FENGYUN 3A",
    "OBJECT_ID": "2008-026A",
    "EPOCH": "2025-05-03T20:54:06.070176",
    "MEAN_MOTION": 14.19432311,
    "ECCENTRICITY": 0.0007805,
    "INCLINATION": 98.6455,
    "RA_OF_ASC_NODE": 68.4677,
    "ARG_OF_PERICENTER": 222.4856,
    "MEAN_ANOMALY": 137.5717,
    "EPHEMERIS_TYPE": 0,
    "CLASSIFICATION_TYPE": "U",
    "NORAD_CAT_ID": 32958,
    "ELEMENT_SET_NO": 999,
    "REV_AT_EPOCH": 87744,
    "BSTAR": 0.00013665,
    "MEAN_MOTION_DOT": 2.45e-06,
    "MEAN_MOTION_DDOT": 0
  },
  {
    "OBJECT_NAME": "NOAA 19",
    "OBJECT_ID": "2009-005A",
    "EPOCH": "2025-05-04T04:05:30.242688",
    "MEAN_MOTION": 14.13355066,
    "ECCENTRICITY": 0.0014862,
    "INCLINATION": 98.9992,
    "RA_OF_ASC_NODE": 188.6675,
    "ARG_OF_PERICENTER": 106.3286,
    "MEAN_ANOMALY": 253.9522,
    "EPHEMERIS_TYPE": 0,
    "CLASSIFICATION_TYPE": "U",
    "NORAD_CAT_ID": 33591,
    "ELEMENT_SET_NO": 999,
    "REV_AT_EPOCH": 83696,
    "BSTAR": 0.00018924,
    "MEAN_MOTION_DOT": 3.1e-06,
    "MEAN_MOTION_DDOT": 0
  },
  {
    "OBJECT_NAME": "GOES 14",
    "OBJECT_ID": "2009-033A",
    "EPOCH": "2025-05-03T15:33:54.535104",
    "MEAN_MOTION": 1.00271237,
    "ECCENTRICITY": 6.82e-05,
    "INCLINATION": 0.6216,
    "RA_OF_ASC_NODE": 88.4223,
    "ARG_OF_PERICENTER": 50.3026,
    "MEAN_ANOMALY": 208.159,
    "EPHEMERIS_TYPE": 0,
    "CLASSIFICATION_TYPE": "U",
    "NORAD_CAT_ID": 35491,
    "ELEMENT_SET_NO": 999,
    "REV_AT_EPOCH": 248,
    "BSTAR": 0,
    "MEAN_MOTION_DOT": -7.7e-07,
    "MEAN_MOTION_DDOT": 0
  },
  {
    "OBJECT_NAME": "DMSP 5D-3 F18 (USA 210)",
    "OBJECT_ID": "2009-057A",
    "EPOCH": "2025-05-04T05:16:32.559456",
    "MEAN_MOTION": 14.14606977,
    "ECCENTRICITY": 0.0010713,
    "INCLINATION": 98.8576,
    "RA_OF_ASC_NODE": 102.0856,
    "ARG_OF_PERICENTER": 339.9403,
    "MEAN_ANOMALY": 20.1348,
    "EPHEMERIS_TYPE": 0,
    "CLASSIFICATION_TYPE": "U",
    "NORAD_CAT_ID": 35951,
    "ELEMENT_SET_NO": 999,
    "REV_AT_EPOCH": 80174,
    "BSTAR": 0.00024821,
    "MEAN_MOTION_DOT": 4.33e-06,
    "MEAN_MOTION_DDOT": 0
  },
  {
    "OBJECT_NAME": "EWS-G2 (GOES 15)",
    "OBJECT_ID": "2010-008A",
    "EPOCH": "2025-05-04T04:49:38.482176",
    "MEAN_MOTION": 1.00275674,
    "ECCENTRICITY": 0.0001779,
    "INCLINATION": 0.2163,
    "RA_OF_ASC_NODE": 85.8718,
    "ARG_OF_PERICENTER": 183.0012,
    "MEAN_ANOMALY": 87.4117,
    "EPHEMERIS_TYPE": 0,
    "CLASSIFICATION_TYPE": "U",
    "NORAD_CAT_ID": 36411,
    "ELEMENT_SET_NO": 999,
    "REV_AT_EPOCH": 5553,
    "BSTAR": 0,
    "MEAN_MOTION_DOT": 2.6e-07,
    "MEAN_MOTION_DDOT": 0
  },
  {
    "OBJECT_NAME": "COMS 1",
    "OBJECT_ID": "2010-032A",
    "EPOCH": "2025-05-03T22:04:43.990176",
    "MEAN_MOTION": 1.00272167,
    "ECCENTRICITY": 9.25e-05,
    "INCLINATION": 3.7596,
    "RA_OF_ASC_NODE": 80.5046,
    "ARG_OF_PERICENTER": 302.5376,
    "MEAN_ANOMALY": 298.3335,
    "EPHEMERIS_TYPE": 0,
    "CLASSIFICATION_TYPE": "U",
    "NORAD_CAT_ID": 36744,
    "ELEMENT_SET_NO": 999,
    "REV_AT_EPOCH": 4698,
    "BSTAR": 0,
    "MEAN_MOTION_DOT": -3.53e-06,
    "MEAN_MOTION_DDOT": 0
  },
  {
    "OBJECT_NAME": "FENGYUN 3B",
    "OBJECT_ID": "2010-059A",
    "EPOCH": "2025-05-04T04:23:39.160032",
    "MEAN_MOTION": 14.14721013,
    "ECCENTRICITY": 0.0021033,
    "INCLINATION": 99.0162,
    "RA_OF_ASC_NODE": 162.2096,
    "ARG_OF_PERICENTER": 264.7628,
    "MEAN_ANOMALY": 175.9652,
    "EPHEMERIS_TYPE": 0,
    "CLASSIFICATION_TYPE": "U",
    "NORAD_CAT_ID": 37214,
    "ELEMENT_SET_NO": 999,
    "REV_AT_EPOCH": 74963,
    "BSTAR": 7.7832e-05,
    "MEAN_MOTION_DOT": 1.04e-06,
    "MEAN_MOTION_DDOT": 0
  },
  {
    "OBJECT_NAME": "SUOMI NPP",
    "OBJECT_ID": "2011-061A",
    "EPOCH": "2025-05-04T04:06:37.583712",
    "MEAN_MOTION": 14.19528143,
    "ECCENTRICITY": 0.0002492,
    "INCLINATION": 98.7559,
    "RA_OF_ASC_NODE": 63.8447,
    "ARG_OF_PERICENTER": 70.7244,
    "MEAN_ANOMALY": 289.4202,
    "EPHEMERIS_TYPE": 0,
    "CLASSIFICATION_TYPE": "U",
    "NORAD_CAT_ID": 37849,
    "ELEMENT_SET_NO": 999,
    "REV_AT_EPOCH": 70040,
    "BSTAR": 9.8978e-05,
    "MEAN_MOTION_DOT": 1.65e-06,
    "MEAN_MOTION_DDOT": 0
  }
]