NOAA 15                 
1 25338U 98030A   25124.13948212  .00000341  00000+0  15776-3 0  9991
2 25338  98.5380 150.1434 0011507 105.1545 255.0910 14.26957848403204
DMSP 5D-3 F16 (USA 172) 
1 28054U 03048A   25124.21945669  .00000198  00000+0  12735-3 0  9998
2 28054  99.0148 139.7237 0006483 217.3916 215.5932 14.14346783111656
NOAA 18                 
1 28654U 05018A   25124.16993808  .00000317  00000+0  19135-3 0  9999
2 28654  98.8422 204.0552 0013441 229.3262 130.6743 14.13590821 28601
METEOSAT-9 (MSG-2)      
1 28912U 05049B   25123.95544126  .00000116  00000+0  00000+0 0  9995
2 28912   8.4299  58.0499 0000881 356.3353 197.4337  1.00277751  2901
EWS-G1 (GOES 13)        
1 29155U 06018A   25123.75612661  .00000044  00000+0  00000+0 0  9990
2 29155   3.4683  81.3999 0064181 264.9229 222.0961  0.98816304 39206
DMSP 5D-3 F17 (USA 191) 
1 29522U 06050A   25124.15053054  .00000243  00000+0  14842-3 0  9998
2 29522  98.7400 134.1177 0010853 138.7051 221.4945 14.14824540954576
FENGYUN 3A              
1 32958U 08026A   25123.87090359  .00000245  00000+0  13665-3 0  9991
2 32958  98.6455  68.4677 0007805 222.4856 137.5717 14.19432311877443
NOAA 19                 
1 33591U 09005A   25124.17048892  .00000310  00000+0  18924-3 0  9998
2 33591  98.9992 188.6675 0014862 106.3286 253.9522 14.13355066836961
GOES 14                 
1 35491U 09033A   25123.64854786 -.00000077  00000+0  00000+0 0  9991
2 35491   0.6216  88.4223 0000682  50.3026 208.1590  1.00271237  2480
DMSP 5D-3 F18 (USA 210) 
1 35951U 09057A   25124.21982129  .00000433  00000+0  24821-3 0  9991
2 35951  98.8576 102.0856 0010713 339.9403  20.1348 14.14606977801746
EWS-G2 (GOES 15)        
1 36411U 10008A   25124.20113984  .00000026  00000+0  00000+0 0  9992
2 36411   0.2163  85.8718 0001779 183.0012  87.4117  1.00275674 55533
COMS 1                  
1 36744U 10032A   25123.91995359 -.00000353  00000+0  00000+0 0  9993
2 36744   3.7596  80.5046 0000925 302.5376 298.3335  1.00272167 46987
FENGYUN 3B              
1 37214U 10059A   25124.18309213  .00000104  00000+0  77832-4 0  9998
2 37214  99.0162 162.2096 0021033 264.7628 175.9652 14.14721013749634
SUOMI NPP               
1 37849U 11061A   25124.17126833  .00000165  00000+0  98978-4 0  9991
2 37849  98.7559  63.8447 0002492  70.7244 289.4202 14.19528143700405
